SENTINEL-6              
1 46984U 20086A   24215.92106968 -.00000051  00000+0  44527-4 0  9994
2 46984  66.0414 114.2062 0007805 269.8786  90.1335 12.80930175172812
